ONEWEB-0331             
1 49198U 21083N   25206.49897252  .00000067  00000+0  13829-3 0  9994
2 49198  87.9121  40.3447 0001502  96.8555 263.2747 13.18686289186951
ONEWEB-0333             
1 49199U 21083P   25206.94770567  .00000330  00000+0  86997-3 0  9993
2 49199  87.8965  25.0845 0001860  91.4451 268.6892 13.13469412188080
ONEWEB-0334             
1 49200U 21083Q   25206.78228172  .00000048  00000+0  87124-4 0  9998
2 49200  87.9278 339.4967 0002775  85.2133 274.9317 13.20771758193706
ONEWEB-0335             
1 49201U 21083R   25206.94262760  .00000309  00000+0  81256-3 0  9997
2 49201  87.8959  25.0733 0001682  96.5464 263.5857 13.13469685188093
ONEWEB-0336             
1 49202U 21083S   25206.91384333 -.00000297  00000+0 -84696-3 0  9995
2 49202  87.8958  25.0721 0001880  94.0863 266.0481 13.13469958188089
ONEWEB-0337             
1 49203U 21083T   25206.92385402 -.00000074  00000+0 -23858-3 0  9991
2 49203  87.8963  25.0697 0001602  90.5687 269.5625 13.13472019188085
ONEWEB-0338             
1 49204U 21083U   25206.90855006 -.00000058  00000+0 -17361-3 0  9996
2 49204  87.9289 339.4652 0002114  91.1436 268.9940 13.20770739193749
ONEWEB-0339             
1 49205U 21083V   25206.93246591  .00000126  00000+0  31105-3 0  9999
2 49205  87.8959  25.0546 0001750  86.3283 273.8046 13.13469403188060
